#aV2012  3 30  0  0  0.00000000     288 DD+AD WGS84 FIT  NGA
## 1681 432000.00000000   300.00000000 56016 0.0000000000000
+   31     1  2  3  4  5  6  7  8  9 10 11 12 13 14 15 16 17
+         18 19 20 21 22 23 25 26 27 28 29 30 31 32  0  0  0
+          0  0  0  0  0  0  0  0  0  0  0  0  0  0  0  0  0
+          0  0  0  0  0  0  0  0  0  0  0  0  0  0  0  0  0
+          0  0  0  0  0  0  0  0  0  0  0  0  0  0  0  0  0
++         2  2  2  2  2  2  2  2  2  2  2  2  2  2  2  2  2
++         2  2  2  2  2  2  2  2  2  2  2  2  2  2  2  0  0
++         0  0  0  0  0  0  0  0  0  0  0  0  0  0  0  0  0
++         0  0  0  0  0  0  0  0  0  0  0  0  0  0  0  0  0
++         0  0  0  0  0  0  0  0  0  0  0  0  0  0  0  0  0
%c cc cc ccc ccc cccc cccc cccc cccc ccccc ccccc ccccc ccccc
%c cc cc ccc ccc cccc cccc cccc cccc ccccc ccccc ccccc ccccc
%f  0.0000000  0.000000000  0.00000000000  0.000000000000000
%f  0.0000000  0.000000000  0.00000000000  0.000000000000000
%i    0    0    0    0      0      0      0      0         0
%i    0    0    0    0      0      0      0      0         0
/*      NGA, ST. LOUIS,MO.                                  
/*   EPHEMERIS COMPUTED FROM  1 DAYS OF DATA
/*   EPOCHA SMOOTHER  
/* CCCCCCCCCCCCCCCCCCCCCCCCCCCCCCCCCCCCCCCCCCCCCCCCCCCCCCCCC
*  2012  3 30 18 30  0.00000000                                                 
P  1 -15795.671170     92.252890  21345.277191    241.332928                    
V  1  -8506.668970 -25762.850933  -6157.229352      0.057677                    
P  2  13621.020651  21932.228074  -7162.398270    384.815505                    
V  2    414.204433   9588.806161  29171.483142      0.014413                    
P  3 -20361.435044 -11247.740787 -13533.198616     29.473179                    
V  3  16523.914944  -1677.741346 -24023.274797      0.050663                    
P  4   6605.053919  25357.306614   2839.109120    138.630740                    
V  4  -4891.527676  -2478.511769  31172.999297      0.113803                    
P  5  11517.160233  10266.807797 -21642.170297   -299.565546                    
V  5 -17995.927238  20739.397422    384.511994     -0.041709                    
P  6 -16814.294939 -13665.480682 -15420.706787     31.683416                    
V  6  19898.419571    318.459639 -21504.602787     -0.004504                    
P  7  -9473.767999  14511.809641 -20031.771460     68.565502                    
V  7  -9047.820234 -23881.066836 -13247.599307      0.030964                    
P  8  -2065.044949  23437.689435 -11666.472203      0.927859                    
V  8  -5311.395434 -14220.726718 -28029.950723      0.000091                    
P  9  15942.738590   4827.522629  20128.514423    148.149449                    
V  9   8204.058682  25482.431980 -12306.146767      0.025724                    
P 10  -4864.956479  21425.390631 -14888.125330    -33.880505                    
V 10 -14402.548330  12151.329398  22966.419169     -0.012007                    
P 11 -19990.948539  -5514.260082  16382.004903   -246.696525                    
V 11  -9888.319508 -19500.810527 -17889.794646     -0.036448                    
P 12  19974.590418  -5533.074371  16497.305774     60.765446                    
V 12 -12898.911646  16623.790385  21381.639009      0.021162                    
P 13 -17919.991066   7455.629449 -18317.654073    216.400032                    
V 13 -21685.276193  -7335.492737  18288.599508     -0.022324                    
P 14  -1231.824416 -15436.786984  21769.575222    198.673916                    
V 14  26368.954186   6493.997710   6010.659968      0.011339                    
P 15  26427.566846   2723.336895   2407.331737    -91.647578                    
V 15   2495.978549   3558.322659 -31086.940165      0.002359                    
P 16 -10395.773768 -10529.106641 -22038.224894   -229.461394                    
V 16  19283.924978 -20251.999157    885.542221     -0.014671                    
P 17  -1451.510764  15284.403206  21857.793272    139.190772                    
V 17 -26656.939477  -5996.617722   2209.535704     -0.026602                    
P 18  16792.839735 -20303.066234   1132.040324    188.642608                    
V 18   3761.732511   1921.034797 -31254.226822      0.018147                    
P 19 -25751.062984  -7329.452484     17.192083   -250.702996                    
V 19    627.332794  -2442.396788 -31479.894203     -0.037672                    
P 20 -20561.257626  10340.357018  13037.844220     63.257869                    
V 20   8090.620728 -15171.506741  24554.803773     -0.000307                    
P 21   6968.883252 -18551.477945 -16923.037028   -214.065925                    
V 21   9873.899632  20656.755104 -18660.661734     -0.024680                    
P 22   5822.383567 -22027.367411  13727.178525    143.189290                    
V 22  13705.776274 -10932.126061 -23779.545583      0.001206                    
P 23 -25000.048981   1525.937885  -9344.807637    219.417423                    
V 23 -11092.986076  -4607.501377  28475.481190     -0.035404                    
P 25  19440.739561 -17224.693217   5380.640889     32.603021                    
V 25  -2480.103652   6904.204106  30965.051770      0.003001                    
P 26  20783.900827  13359.687328 -10860.614058   -232.239809                    
V 26 -12609.453172  -2107.314005 -27986.551942     -0.549015                    
P 27  17112.670694  11673.898210  17513.610846    372.222943                    
V 27   6749.640708  19692.849661 -19999.780495      0.040230                    
P 28  -8879.150871  21748.760936  12726.226972    128.131136                    
V 28 -11923.490236   9817.144591 -26459.432958      0.040306                    
P 29  19862.203691  -6838.280148 -16157.348007    298.680798                    
V 29  19662.345937   6613.501865  21323.356744      0.035317                    
P 30  -3319.849730 -18545.939537 -19071.999140   -107.497437                    
V 30  14593.377646 -18451.228447  15703.771658     -0.180906                    
P 31  -6545.682225 -25491.392886   2577.840264    225.560965                    
V 31   3188.562097   2164.337925  32138.881502      0.043332                    
P 32 -19177.511747    369.509951  18385.996270   -426.786727                    
V 32  15294.271003 -17418.472987  16963.211376     -0.046003                    
EOF
